start=new Date('2022-10-21T00:00:00.000Z').valueOf();
sats=[{"ELEMENT_SET_NO":"999","MEAN_MOTION":"15.06394757","INCLINATION":"53.0565","MEAN_MOTION_DDOT":"0.0000000000000","MEAN_MOTION_DOT":"0.00001089","FILE":"3626396","SITE":"AFETR","OBJECT_TYPE":"PAYLOAD","TLE_LINE1":"1 47916U 21021BJ  22293.70491686  .00001089  00000-0  92014-4 0  9990","CENTER_NAME":"EARTH","GP_ID":"215724112","PERIAPSIS":"546.306","APOAPSIS":"548.153","OBJECT_ID":"2021-021BJ","ECCENTRICITY":"0.00013340","REV_AT_EPOCH":"9002","TLE_LINE2":"2 47916  53.0565  50.1832 0001334  78.3448 281.7691 15.06394757 90029","NORAD_CAT_ID":"47916","MEAN_ANOMALY":"281.7691","REF_FRAME":"TEME","RCS_SIZE":"LARGE","CLASSIFICATION_TYPE":"U","RA_OF_ASC_NODE":"50.1832","SEMIMAJOR_AXIS":"6925.365","EPOCH":"2022-10-20T16:55:04.816704","ARG_OF_PERICENTER":"78.3448","COUNTRY_CODE":"US","TIME_SYSTEM":"UTC","LAUNCH_DATE":"2021-03-14","BSTAR":"0.00009201400000","EPHEMERIS_TYPE":"0","PERIOD":"95.592","MEAN_ELEMENT_THEORY":"SGP4","OBJECT_NAME":"STARLINK-2378","DECAY_DATE":null},{"COUNTRY_CODE":"US","EPHEMERIS_TYPE":"0","BSTAR":"0.00001957800000","PERIOD":"95.592","MEAN_ELEMENT_THEORY":"SGP4","OBJECT_NAME":"STARLINK-2397","DECAY_DATE":null,"TIME_SYSTEM":"UTC","LAUNCH_DATE":"2021-03-14","NORAD_CAT_ID":"47917","TLE_LINE2":"2 47917  53.0561  64.0054 0001499 112.6857 247.4290 15.06399254 89742","MEAN_ANOMALY":"247.4290","OBJECT_ID":"2021-021BK","ECCENTRICITY":"0.00014990","REV_AT_EPOCH":"8974","SEMIMAJOR_AXIS":"6925.351","EPOCH":"2022-10-19T20:22:20.862048","ARG_OF_PERICENTER":"112.6857","RCS_SIZE":"LARGE","REF_FRAME":"TEME","CLASSIFICATION_TYPE":"U","RA_OF_ASC_NODE":"64.0054","CENTER_NAME":"EARTH","GP_ID":"215620624","FILE":"3623738","SITE":"AFETR","TLE_LINE1":"1 47917U 21021BK  22292.84885257  .00000010  00000-0  19578-4 0  9993","OBJECT_TYPE":"PAYLOAD","APOAPSIS":"548.254","PERIAPSIS":"546.178","MEAN_MOTION":"15.06399254","ELEMENT_SET_NO":"999","MEAN_MOTION_DOT":"0.00000010","INCLINATION":"53.0561","MEAN_MOTION_DDOT":"0.0000000000000"},{"REF_FRAME":"TEME","RCS_SIZE":"LARGE","RA_OF_ASC_NODE":"60.4173","CLASSIFICATION_TYPE":"U","SEMIMAJOR_AXIS":"6925.369","ARG_OF_PERICENTER":"78.8873","EPOCH":"2022-10-20T15:39:26.521056","OBJECT_ID":"2021-021BL","ECCENTRICITY":"0.00012350","REV_AT_EPOCH":"8989","NORAD_CAT_ID":"47918","TLE_LINE2":"2 47918  53.0562  60.4173 0001235  78.8873 281.2255 15.06393318 89893","MEAN_ANOMALY":"281.2255","TIME_SYSTEM":"UTC","LAUNCH_DATE":"2021-03-14","EPHEMERIS_TYPE":"0","BSTAR":"0.00003541700000","MEAN_ELEMENT_THEORY":"SGP4","PERIOD":"95.593","DECAY_DATE":null,"OBJECT_NAME":"STARLINK-2398","COUNTRY_CODE":"US","INCLINATION":"53.0562","MEAN_MOTION_DDOT":"0.0000000000000","MEAN_MOTION_DOT":"0.00000246","ELEMENT_SET_NO":"999","MEAN_MOTION":"15.06393318","PERIAPSIS":"546.379","APOAPSIS":"548.089","FILE":"3626396","SITE":"AFETR","OBJECT_TYPE":"PAYLOAD","TLE_LINE1":"1 47918U 21021BL  22293.65239029  .00000246  00000-0  35417-4 0  9995","CENTER_NAME":"EARTH","GP_ID":"215725113"},{"EPOCH":"2022-10-20T12:05:48.386400","ARG_OF_PERICENTER":"74.1189","SEMIMAJOR_AXIS":"6925.374","RA_OF_ASC_NODE":"71.0740","CLASSIFICATION_TYPE":"U","RCS_SIZE":"LARGE","REF_FRAME":"TEME","TLE_LINE2":"2 47919  53.0569  71.0740 0001258  74.1189 285.9938 15.06391647 89233","NORAD_CAT_ID":"47919","MEAN_ANOMALY":"285.9938","ECCENTRICITY":"0.00012580","REV_AT_EPOCH":"8923","OBJECT_ID":"2021-021BM","PERIOD":"95.593","MEAN_ELEMENT_THEORY":"SGP4","DECAY_DATE":null,"OBJECT_NAME":"STARLINK-2405","BSTAR":"0.00010553000000","EPHEMERIS_TYPE":"0","TIME_SYSTEM":"UTC","LAUNCH_DATE":"2021-03-14","COUNTRY_CODE":"US","MEAN_MOTION_DOT":"0.00001290","MEAN_MOTION_DDOT":"0.0000000000000","INCLINATION":"53.0569","MEAN_MOTION":"15.06391647","ELEMENT_SET_NO":"999","APOAPSIS":"548.110","PERIAPSIS":"546.368","CENTER_NAME":"EARTH","GP_ID":"215695226","TLE_LINE1":"1 47919U 21021BM  22293.50403225  .00001290  00000-0  10553-3 0  9994","OBJECT_TYPE":"PAYLOAD","FILE":"3626088","SITE":"AFETR"},{"MEAN_MOTION":"15.06393530","ELEMENT_SET_NO":"999","MEAN_MOTION_DOT":"0.00000133","MEAN_MOTION_DDOT":"0.0000000000000","INCLINATION":"53.0544","CENTER_NAME":"EARTH","GP_ID":"215724118","SITE":"AFETR","FILE":"3626396","TLE_LINE1":"1 47977U 21024A   22293.77818827  .00000133  00000-0  27790-4 0  9995","OBJECT_TYPE":"PAYLOAD","APOAPSIS":"548.106","PERIAPSIS":"546.361","MEAN_ANOMALY":"248.0335","NORAD_CAT_ID":"47977","TLE_LINE2":"2 47977  53.0544 114.8507 0001260 112.0788 248.0335 15.06393530 88421","OBJECT_ID":"2021-024A","REV_AT_EPOCH":"8842","ECCENTRICITY":"0.00012600","SEMIMAJOR_AXIS":"6925.368","EPOCH":"2022-10-20T18:40:35.466528","ARG_OF_PERICENTER":"112.0788","RCS_SIZE":"LARGE","REF_FRAME":"TEME","CLASSIFICATION_TYPE":"U","RA_OF_ASC_NODE":"114.8507","COUNTRY_CODE":"US","BSTAR":"0.00002779000000","EPHEMERIS_TYPE":"0","DECAY_DATE":null,"OBJECT_NAME":"STARLINK-2087","PERIOD":"95.593","MEAN_ELEMENT_THEORY":"SGP4","LAUNCH_DATE":"2021-03-24","TIME_SYSTEM":"UTC"},{"NORAD_CAT_ID":"47978","TLE_LINE2":"2 47978  53.0538 124.7428 0001529 105.7250 254.3908 15.06394021 88284","MEAN_ANOMALY":"254.3908","OBJECT_ID":"2021-024B","ECCENTRICITY":"0.00015290","REV_AT_EPOCH":"8828","SEMIMAJOR_AXIS":"6925.367","ARG_OF_PERICENTER":"105.7250","EPOCH":"2022-10-20T19:11:05.690688","RCS_SIZE":"LARGE","REF_FRAME":"TEME","RA_OF_ASC_NODE":"124.7428","CLASSIFICATION_TYPE":"U","COUNTRY_CODE":"US","EPHEMERIS_TYPE":"0","BSTAR":"-0.00000649970000","MEAN_ELEMENT_THEORY":"SGP4","PERIOD":"95.593","DECAY_DATE":null,"OBJECT_NAME":"STARLINK-1647","TIME_SYSTEM":"UTC","LAUNCH_DATE":"2021-03-24","MEAN_MOTION":"15.06394021","ELEMENT_SET_NO":"999","MEAN_MOTION_DOT":"-0.00000378","INCLINATION":"53.0538","MEAN_MOTION_DDOT":"0.0000000000000","GP_ID":"215723869","CENTER_NAME":"EARTH","FILE":"3626396","SITE":"AFETR","TLE_LINE1":"1 47978U 21024B   22293.79937142 -.00000378  00000-0 -64997-5 0  9994","OBJECT_TYPE":"PAYLOAD","APOAPSIS":"548.291","PERIAPSIS":"546.173"},{"FILE":"3626396","SITE":"AFETR","OBJECT_TYPE":"PAYLOAD","TLE_LINE1":"1 47979U 21024C   22293.73716896  .00000081  00000-0  24314-4 0  9997","GP_ID":"215725119","CENTER_NAME":"EARTH","APOAPSIS":"548.381","PERIAPSIS":"546.097","ELEMENT_SET_NO":"999","MEAN_MOTION":"15.06391823","INCLINATION":"53.0560","MEAN_MOTION_DDOT":"0.0000000000000","MEAN_MOTION_DOT":"0.00000081","COUNTRY_CODE":"US","TIME_SYSTEM":"UTC","LAUNCH_DATE":"2021-03-24","EPHEMERIS_TYPE":"0","BSTAR":"0.00002431400000","MEAN_ELEMENT_THEORY":"SGP4","PERIOD":"95.593","DECAY_DATE":null,"OBJECT_NAME":"STARLINK-2325","OBJECT_ID":"2021-024C","ECCENTRICITY":"0.00016490","REV_AT_EPOCH":"8918","NORAD_CAT_ID":"47979","TLE_LINE2":"2 47979  53.0560  60.0302 0001649  45.7604 314.3520 15.06391823 89186","MEAN_ANOMALY":"314.3520","REF_FRAME":"TEME","RCS_SIZE":"LARGE","CLASSIFICATION_TYPE":"U","RA_OF_ASC_NODE":"60.0302","SEMIMAJOR_AXIS":"6925.374","EPOCH":"2022-10-20T17:41:31.398144","ARG_OF_PERICENTER":"45.7604"},{"SEMIMAJOR_AXIS":"6925.346","EPOCH":"2022-10-20T16:35:11.871168","ARG_OF_PERICENTER":"60.3660","REF_FRAME":"TEME","RCS_SIZE":"LARGE","CLASSIFICATION_TYPE":"U","RA_OF_ASC_NODE":"40.3690","MEAN_ANOMALY":"299.7488","TLE_LINE2":"2 47980  53.0562  40.3690 0001600  60.3660 299.7488 15.06400947 89450","NORAD_CAT_ID":"47980","OBJECT_ID":"2021-024D","REV_AT_EPOCH":"8945","ECCENTRICITY":"0.00016000","BSTAR":"0.00026526000000","EPHEMERIS_TYPE":"0","OBJECT_NAME":"STARLINK-2312","DECAY_DATE":null,"PERIOD":"95.592","MEAN_ELEMENT_THEORY":"SGP4","LAUNCH_DATE":"2021-03-24","TIME_SYSTEM":"UTC","COUNTRY_CODE":"US","MEAN_MOTION_DOT":"0.00003672","MEAN_MOTION_DDOT":"0.0000000000000","INCLINATION":"53.0562","MEAN_MOTION":"15.06400947","ELEMENT_SET_NO":"999","APOAPSIS":"548.319","PERIAPSIS":"546.103","GP_ID":"215724853","CENTER_NAME":"EARTH","SITE":"AFETR","FILE":"3626396","TLE_LINE1":"1 47980U 21024D   22293.69110962  .00003672  00000-0  26526-3 0  9991","OBJECT_TYPE":"PAYLOAD"},{"OBJECT_ID":"2021-024E","REV_AT_EPOCH":"8821","ECCENTRICITY":"0.00011250","MEAN_ANOMALY":"249.5881","NORAD_CAT_ID":"47981","TLE_LINE2":"2 47981  53.0537 126.8727 0001125 110.5229 249.5881 15.06390398 88216","REF_FRAME":"TEME","RCS_SIZE":"LARGE","CLASSIFICATION_TYPE":"U","RA_OF_ASC_NODE":"126.8727","SEMIMAJOR_AXIS":"6925.378","ARG_OF_PERICENTER":"110.5229","EPOCH":"2022-10-20T07:46:23.881728","COUNTRY_CODE":"US","LAUNCH_DATE":"2021-03-24","TIME_SYSTEM":"UTC","EPHEMERIS_TYPE":"0","BSTAR":"0.00004282600000","OBJECT_NAME":"STARLINK-2303","DECAY_DATE":null,"PERIOD":"95.593","MEAN_ELEMENT_THEORY":"SGP4","ELEMENT_SET_NO":"999","MEAN_MOTION":"15.06390398","MEAN_MOTION_DDOT":"0.0000000000000","INCLINATION":"53.0537","MEAN_MOTION_DOT":"0.00000356","SITE":"AFETR","FILE":"3625892","TLE_LINE1":"1 47981U 21024E   22293.32388752  .00000356  00000-0  42826-4 0  9994","OBJECT_TYPE":"PAYLOAD","CENTER_NAME":"EARTH","GP_ID":"215689891","APOAPSIS":"548.022","PERIAPSIS":"546.464"},{"MEAN_MOTION_DOT":"0.00003158","INCLINATION":"53.0568","MEAN_MOTION_DDOT":"0.0000000000000","MEAN_MOTION":"15.06398059","ELEMENT_SET_NO":"999","PERIAPSIS":"546.188","APOAPSIS":"548.251","CENTER_NAME":"EARTH","GP_ID":"215690128","OBJECT_TYPE":"PAYLOAD","TLE_LINE1":"1 47982U 21024F   22293.50356796  .00003158  00000-0  23085-3 0  9996","SITE":"AFETR","FILE":"3625892","EPOCH":"2022-10-20T12:05:08.271744","ARG_OF_PERICENTER":"65.5996","SEMIMAJOR_AXIS":"6925.355","CLASSIFICATION_TYPE":"U","RA_OF_ASC_NODE":"56.0734","RCS_SIZE":"LARGE","REF_FRAME":"TEME","MEAN_ANOMALY":"294.5149","TLE_LINE2":"2 47982  53.0568  56.0734 0001490  65.5996 294.5149 15.06398059 89162","NORAD_CAT_ID":"47982","REV_AT_EPOCH":"8916","ECCENTRICITY":"0.00014900","OBJECT_ID":"2021-024F","OBJECT_NAME":"STARLINK-2317","DECAY_DATE":null,"PERIOD":"95.592","MEAN_ELEMENT_THEORY":"SGP4","EPHEMERIS_TYPE":"0","BSTAR":"0.00023085000000","LAUNCH_DATE":"2021-03-24","TIME_SYSTEM":"UTC","COUNTRY_CODE":"US"}];
